STARLINK-5717           
1 55618U 23020BB  23062.21839127  .00103506  00000+0  78155-3 0  9991
2 55618  42.9995 241.6198 0001724 278.6933  81.3739 15.71398787  3008
STARLINK-5720           
1 55619U 23020BC  23062.21828658  .00098606  00000+0  74574-3 0  9994
2 55619  42.9994 241.6179 0002065 277.3325  82.7308 15.71379454  3004
STARLINK-5718           
1 55620U 23020BD  23061.96382669  .00055546  00000+0  42303-3 0  9995
2 55620  42.9987 243.1498 0001813 273.8843  86.1817 15.71420895  2968
STARLINK-5709           
1 55621U 23020BE  23062.21860707  .00079480  00000+0  60339-3 0  9991
2 55621  42.9988 241.6202 0000966 312.4688  47.6098 15.71370927  3000
STARLINK-5702           
1 55622U 23020BF  23062.21818090  .00088935  00000+0  67375-3 0  9992
2 55622  42.9988 241.6165 0001882 284.2516  75.8143 15.71378544  3000
STARLINK-5698           
1 55623U 23020BG  23062.21797600  .00056057  00000+0  42789-3 0  9998
2 55623  42.9989 241.6154 0000814 308.5132  51.5663 15.71364804  3000
FALCON 9 DEB            
1 55624U 23020BH  23061.85480370  .00471955  99271-4  10496-2 0  9991
2 55624  43.0077 241.3745 0017516  73.4886 286.7914 15.96777078  2979
FALCON 9 DEB            
1 55625U 23020BJ  23061.78401430  .00532557  12760-3  11089-2 0  9996
2 55625  43.0043 241.6940 0014019  70.0695 290.1692 15.98057729  2966
FALCON 9 DEB            
1 55626U 23020BK  23062.20573269  .00659336  20238-3  12060-2 0  9999
2 55626  42.9991 238.8074 0015452  55.7460 304.4879 16.00283533  3038
FALCON 9 DEB            
1 55627U 23020BL  23062.20696271  .00611898  17156-3  11790-2 0  9994
2 55627  42.9971 238.8148 0014725  57.6009 302.6291 15.99401676  3036
STARLINK-5484           
1 55628U 23021A   23062.50001157 -.00973204  00000+0 -70876-2 0  9992
2 55628  70.0003 111.3884 0003708 281.3332 105.8582 15.75704335  2702
STARLINK-5497           
1 55629U 23021B   23062.50001157 -.00973320  00000+0 -70919-2 0  9990
2 55629  70.0002 111.3889 0003709 281.8503 104.8504 15.75693583  2708
STARLINK-5303           
1 55630U 23021C   23062.50001157 -.00973212  00000+0 -70851-2 0  9997
2 55630  70.0003 111.3878 0003683 279.8965 107.8065 15.75712890  2707
STARLINK-5558           
1 55631U 23021D   23062.50001157 -.00973070  00000+0 -70634-2 0  9999
2 55631  70.0003 111.3841 0003750 283.7368 106.8972 15.75777826  2700
STARLINK-5546           
1 55632U 23021E   23062.50001157 -.00973134  00000+0 -70774-2 0  9996
2 55632  70.0003 111.3865 0003745 283.4622 105.2171 15.75734655  2708
STARLINK-5498           
1 55633U 23021F   23062.50001157 -.00973172  00000+0 -70748-2 0  9990
2 55633  70.0003 111.3858 0003611 270.8221 118.3430 15.75745831  2709
STARLINK-5500           
1 55634U 23021G   23062.50001157 -.00973145  00000+0 -70807-2 0  9997
2 55634  70.0003 111.3871 0003763 284.1980 103.9894 15.75724119  2703
STARLINK-5495           
1 55635U 23021H   23062.50001157 -.00973154  00000+0 -70510-2 0  9999
2 55635  70.0003 111.3819 0003635 276.6049 115.9775 15.75821434  2705
STARLINK-5218           
1 55636U 23021J   23062.50001157 -.00973125  00000+0 -70674-2 0  9999
2 55636  70.0003 111.3848 0003705 281.3421 108.8039 15.75767045  2704
STARLINK-5062           
1 55637U 23021K   23062.50001157 -.00973099  00000+0 -70469-2 0  9992
2 55637  70.0003 111.3813 0003690 280.8524 112.2149 15.75832434  2704
STARLINK-5507           
1 55638U 23021L   23062.58334491 -.00962327  00000+0 -70405-2 0  9993
2 55638  70.0001 111.1493 0003501 275.5965 226.6142 15.75573275  2715
STARLINK-5508           
1 55639U 23021M   23062.50001157 -.00973093  00000+0 -70300-2 0  9992
2 55639  70.0003 111.3784 0003686 280.6953 114.8030 15.75886733  2700
STARLINK-5069           
1 55640U 23021N   23062.58334491 -.01035140  00000+0 -74281-2 0  9997
2 55640  69.9997 111.1396 0003428 274.6121 235.4236 15.75788026  2717
STARLINK-5065           
1 55641U 23021P   23062.50001157 -.00973075  00000+0 -70333-2 0  9991
2 55641  70.0002 111.3789 0003672 279.8244 115.1886 15.75875823  2706
STARLINK-5478           
1 55642U 23021Q   23062.50001157 -.00973128  00000+0 -70610-2 0  9999
2 55642  70.0003 111.3836 0003620 274.6700 116.4507 15.75788844  2704
STARLINK-5483           
1 55643U 23021R   23062.50001157 -.00973087  00000+0 -70234-2 0  9996
2 55643  70.0003 111.3772 0003669 279.6817 116.7916 15.75908070  2703
STARLINK-5502           
1 55644U 23021S   23062.50001157 -.00973043  00000+0 -70397-2 0  9999
2 55644  70.0003 111.3801 0003697 281.3831 112.6579 15.75854049  2700
STARLINK-5102           
1 55645U 23021T   23062.50001157 -.00973111  00000+0 -70005-2 0  9992
2 55645  70.0003 111.3731 0003688 280.9218 118.9616 15.75982386  2704
STARLINK-5104           
1 55646U 23021U   23062.50001157 -.00973183  00000+0 -70543-2 0  9999
2 55646  70.0003 111.3824 0003611 271.8609 120.2215 15.75811905  2706
STARLINK-5510           
1 55647U 23021V   23062.50001157 -.00973404  00000+0 -70089-2 0  9991
2 55647  70.0003 111.3744 0003733 283.3604 115.5401 15.75962222  2709
STARLINK-5501           
1 55648U 23021W   23062.50001157 -.00973100  00000+0 -70370-2 0  9998
2 55648  70.0002 111.3796 0003627 275.9555 118.5696 15.75865172  2705
STARLINK-5469           
1 55649U 23021X   23062.58334491 -.00992250  00000+0 -72202-2 0  9990
2 55649  69.9997 111.1388 0003499 276.7747 233.7559 15.75779097  2719
STARLINK-5494           
1 55650U 23021Y   23062.50001157 -.00973085  00000+0 -70263-2 0  9994
2 55650  70.0003 111.3778 0003743 283.5567 112.4264 15.75897669  2706
STARLINK-5506           
1 55651U 23021Z   23062.50001157 -.00973144  00000+0 -70435-2 0  9992
2 55651  70.0003 111.3806 0003609 271.6201 121.9108 15.75845635  2701
STARLINK-5487           
1 55652U 23021AA  23062.50001157 -.00973274  00000+0 -70216-2 0  9994
2 55652  70.0002 111.3769 0003677 280.4518 116.5099 15.75918630  2708
STARLINK-5067           
1 55653U 23021AB  23062.50001157 -.00973403  00000+0 -70060-2 0  9996
2 55653  70.0003 111.3737 0003668 279.8818 119.5096 15.75972458  2708
STARLINK-5070           
1 55654U 23021AC  23062.50001157 -.00973123  00000+0 -70572-2 0  9994
2 55654  70.0003 111.3829 0003609 272.4954 119.0991 15.75801065  2700
STARLINK-5267           
1 55655U 23021AD  23062.50001157 -.00973358  00000+0 -69824-2 0  9993
2 55655  70.0003 111.3697 0003672 280.3159 122.4684 15.76047588  2709
STARLINK-5326           
1 55656U 23021AE  23062.50001157 -.00973109  00000+0 -69971-2 0  9991
2 55656  70.0003 111.3726 0003668 279.6968 120.6669 15.75993595  2707
STARLINK-5328           
1 55657U 23021AF  23062.50001157 -.00973374  00000+0 -69892-2 0  9998
2 55657  70.0003 111.3709 0003683 280.9217 120.8971 15.76025842  2708
STARLINK-5307           
1 55658U 23021AG  23062.50001157 -.00973083  00000+0 -70098-2 0  9996
2 55658  70.0002 111.3749 0003688 280.9787 117.4334 15.75951590  2701
STARLINK-5477           
1 55659U 23021AH  23062.50001157 -.00973375  00000+0 -69858-2 0  9993
2 55659  70.0003 111.3703 0003650 278.7601 123.5353 15.76037326  2704
STARLINK-5467           
1 55660U 23021AJ  23062.58334491 -.01048270  00000+0 -75042-2 0  9993
2 55660  69.9993 111.1353 0003479 267.4667 245.9885 15.75872363  2713
STARLINK-5475           
1 55661U 23021AK  23062.50001157 -.00973319  00000+0 -69757-2 0  9992
2 55661  70.0002 111.3687 0003604 273.8865 129.8635 15.76069195  2705
STARLINK-5479           
1 55662U 23021AL  23062.50001157 -.00973391  00000+0 -69929-2 0  9994
2 55662  70.0002 111.3715 0003623 276.1659 125.1685 15.76015120  2709
STARLINK-5473           
1 55663U 23021AM  23062.50001157 -.00973008  00000+0 -69570-2 0  9992
2 55663  70.0002 111.3656 0003616 276.1797 129.9978 15.76121633  2703
STARLINK-5480           
1 55664U 23021AN  23062.41667824 -.00971648  00000+0 -69121-2 0  9992
2 55664  70.0001 111.6056 0003564 269.1691  21.4059 15.76233272  2683
STARLINK-5474           
1 55665U 23021AP  23062.50001157 -.00972997  00000+0 -69661-2 0  9991
2 55665  70.0003 111.3673 0003697 281.7511 122.9639 15.76090708  2705
STARLINK-5457           
1 55666U 23021AQ  23062.50001157  .00204267  00000+0  98436-3 0  9991
2 55666  69.9948 111.3297 0003242 281.7336 148.8478 15.81891372  2704
STARLINK-5456           
1 55667U 23021AR  23062.58334491 -.00987136  00000+0 -71188-2 0  9999
2 55667  70.0001 111.1289 0003536 265.5067 253.8091 15.75967743  2712
STARLINK-5455           
1 55668U 23021AS  23062.50001157 -.00973332  00000+0 -69725-2 0  9999
2 55668  70.0002 111.3681 0003598 271.6977 132.5351 15.76079995  2703
STARLINK-5459           
1 55669U 23021AT  23062.50001157 -.00973005  00000+0 -69598-2 0  9995
2 55669  70.0002 111.3661 0003689 281.4820 124.2066 15.76111468  2702
STARLINK-5423           
1 55670U 23021AU  23062.50001157 -.00973210  00000+0 -69515-2 0  9994
2 55670  70.0002 111.3647 0003680 281.2789 125.8558 15.76143880  2707
STARLINK-5460           
1 55671U 23021AV  23062.50001157 -.00973170  00000+0 -69314-2 0  9997
2 55671  70.0002 111.3611 0003672 280.9117 129.1127 15.76208358  2702
STARLINK-5461           
1 55672U 23021AW  23062.50001157 -.00972912  00000+0 -69328-2 0  9996
2 55672  70.0003 111.3617 0003676 280.9907 128.5571 15.76197060  2704
STARLINK-5463           
1 55673U 23021AX  23062.50001157 -.00973229  00000+0 -69450-2 0  9995
2 55673  70.0002 111.3634 0003704 282.5332 125.5680 15.76165189  2700
STARLINK-5462           
1 55674U 23021AY  23062.58334491 -.01028698  00000+0 -72952-2 0  9997
2 55674  69.9994 111.1252 0003541 274.2521 247.4821 15.76039582  2718
STARLINK-5232           
1 55675U 23021AZ  23062.58334491 -.01028386  00000+0 -73033-2 0  9993
2 55675  69.9995 111.1268 0003545 274.8232 245.4598 15.76006823  2717
STARLINK-5300           
1 55676U 23021BA  23062.58334491 -.00996179  00000+0 -71626-2 0  9993
2 55676  69.9994 111.1236 0003511 276.1888 246.9984 15.76060574  2715
